[
    {
        "Altitude(m)": 612502.202931566,
        "Argument of Periapsis(deg)": 0.0,
        "Eccentricity": 0.0,
        "Inclination(deg)": 60.0,
        "Latitude(deg)": -28.13600007630211,
        "Longitude(deg)": 37.148295745185635,
        "Mean Anomaly(deg)": -32.727300000000035,
        "RAAN(deg)": 155.0,
        "Satellite Name": "Test1 702",
        "Satellite Number": 702,
        "Semi-Major Axis(m)": 6980739.136638005,
        "Time(s)": 0
    },
    {
        "Altitude(m)": 612308.6505539063,
        "Argument of Periapsis(deg)": 0.00010418945913296404,
        "Eccentricity": 0.0,
        "Inclination(deg)": 60.0,
        "Latitude(deg)": -27.62305484317289,
        "Longitude(deg)": 37.50176898631617,
        "Mean Anomaly(deg)": -32.10719385453818,
        "RAAN(deg)": 154.99957995086027,
        "Satellite Name": "Test1 702",
        "Satellite Number": 702,
        "Semi-Major Axis(m)": 6980739.136638005,
        "Time(s)": 10
    }
]